<?xml version="1.0" encoding="UTF-8"?>
<ndm xmlns:xsi="http://www.w3.org/2001/XMLSchema-instance" xsi:noNamespaceSchemaLocation="https://sanaregistry.org/r/ndmxml_unqualified/ndmxml-2.0.0-master-2.0.xsd">
<omm id="CCSDS_OMM_VERS" version="2.0">
<header><CREATION_DATE/><ORIGINATOR/></header><body><segment><metadata><OBJECT_NAME>ORBCOMM FM33 [-]</OBJECT_NAME><OBJECT_ID>1999-065D</OBJECT_ID><CENTER_NAME>EARTH</CENTER_NAME><REF_FRAME>TEME</REF_FRAME><TIME_SYSTEM>UTC</TIME_SYSTEM><MEAN_ELEMENT_THEORY>SGP4</MEAN_ELEMENT_THEORY></metadata><data><meanElements><EPOCH>2024-02-13T14:14:50.885664</EPOCH><MEAN_MOTION>14.37299610</MEAN_MOTION><ECCENTRICITY>.0008354</ECCENTRICITY><INCLINATION>45.0283</INCLINATION><RA_OF_ASC_NODE>161.5159</RA_OF_ASC_NODE><ARG_OF_PERICENTER>130.4897</ARG_OF_PERICENTER><MEAN_ANOMALY>243.9194</MEAN_ANOMALY></meanElements><tleParameters><EPHEMERIS_TYPE>0</EPHEMERIS_TYPE><CLASSIFICATION_TYPE>U</CLASSIFICATION_TYPE><NORAD_CAT_ID>25983</NORAD_CAT_ID><ELEMENT_SET_NO>999</ELEMENT_SET_NO><REV_AT_EPOCH>26556</REV_AT_EPOCH><BSTAR>.10847E-2</BSTAR><MEAN_MOTION_DOT>.3125E-4</MEAN_MOTION_DOT><MEAN_MOTION_DDOT>0</MEAN_MOTION_DDOT></tleParameters></data></segment></body></omm>
<omm id="CCSDS_OMM_VERS" version="2.0">
<header><CREATION_DATE/><ORIGINATOR/></header><body><segment><metadata><OBJECT_NAME>ORBCOMM FM36 [-]</OBJECT_NAME><OBJECT_ID>1999-065E</OBJECT_ID><CENTER_NAME>EARTH</CENTER_NAME><REF_FRAME>TEME</REF_FRAME><TIME_SYSTEM>UTC</TIME_SYSTEM><MEAN_ELEMENT_THEORY>SGP4</MEAN_ELEMENT_THEORY></metadata><data><meanElements><EPOCH>2024-02-13T20:23:24.418752</EPOCH><MEAN_MOTION>14.35172921</MEAN_MOTION><ECCENTRICITY>.0003207</ECCENTRICITY><INCLINATION>45.0387</INCLINATION><RA_OF_ASC_NODE>244.3150</RA_OF_ASC_NODE><ARG_OF_PERICENTER>6.7901</ARG_OF_PERICENTER><MEAN_ANOMALY>353.2990</MEAN_ANOMALY></meanElements><tleParameters><EPHEMERIS_TYPE>0</EPHEMERIS_TYPE><CLASSIFICATION_TYPE>U</CLASSIFICATION_TYPE><NORAD_CAT_ID>25984</NORAD_CAT_ID><ELEMENT_SET_NO>999</ELEMENT_SET_NO><REV_AT_EPOCH>26464</REV_AT_EPOCH><BSTAR>.85981E-3</BSTAR><MEAN_MOTION_DOT>.2339E-4</MEAN_MOTION_DOT><MEAN_MOTION_DDOT>0</MEAN_MOTION_DDOT></tleParameters></data></segment></body></omm>
<omm id="CCSDS_OMM_VERS" version="2.0">
<header><CREATION_DATE/><ORIGINATOR/></header><body><segment><metadata><OBJECT_NAME>ORBCOMM FM35 [+]</OBJECT_NAME><OBJECT_ID>1999-065F</OBJECT_ID><CENTER_NAME>EARTH</CENTER_NAME><REF_FRAME>TEME</REF_FRAME><TIME_SYSTEM>UTC</TIME_SYSTEM><MEAN_ELEMENT_THEORY>SGP4</MEAN_ELEMENT_THEORY></metadata><data><meanElements><EPOCH>2024-02-13T12:29:06.267552</EPOCH><MEAN_MOTION>14.34813099</MEAN_MOTION><ECCENTRICITY>.0003367</ECCENTRICITY><INCLINATION>45.0387</INCLINATION><RA_OF_ASC_NODE>248.2615</RA_OF_ASC_NODE><ARG_OF_PERICENTER>107.2239</ARG_OF_PERICENTER><MEAN_ANOMALY>252.8977</MEAN_ANOMALY></meanElements><tleParameters><EPHEMERIS_TYPE>0</EPHEMERIS_TYPE><CLASSIFICATION_TYPE>U</CLASSIFICATION_TYPE><NORAD_CAT_ID>25985</NORAD_CAT_ID><ELEMENT_SET_NO>999</ELEMENT_SET_NO><REV_AT_EPOCH>26440</REV_AT_EPOCH><BSTAR>.70854E-3</BSTAR><MEAN_MOTION_DOT>.1888E-4</MEAN_MOTION_DOT><MEAN_MOTION_DDOT>0</MEAN_MOTION_DDOT></tleParameters></data></segment></body></omm>
<omm id="CCSDS_OMM_VERS" version="2.0">
<header><CREATION_DATE/><ORIGINATOR/></header><body><segment><metadata><OBJECT_NAME>ORBCOMM FM34 [-]</OBJECT_NAME><OBJECT_ID>1999-065G</OBJECT_ID><CENTER_NAME>EARTH</CENTER_NAME><REF_FRAME>TEME</REF_FRAME><TIME_SYSTEM>UTC</TIME_SYSTEM><MEAN_ELEMENT_THEORY>SGP4</MEAN_ELEMENT_THEORY></metadata><data><meanElements><EPOCH>2024-02-13T06:42:19.548288</EPOCH><MEAN_MOTION>14.34768532</MEAN_MOTION><ECCENTRICITY>.0003797</ECCENTRICITY><INCLINATION>45.0384</INCLINATION><RA_OF_ASC_NODE>249.9091</RA_OF_ASC_NODE><ARG_OF_PERICENTER>51.8968</ARG_OF_PERICENTER><MEAN_ANOMALY>308.2222</MEAN_ANOMALY></meanElements><tleParameters><EPHEMERIS_TYPE>0</EPHEMERIS_TYPE><CLASSIFICATION_TYPE>U</CLASSIFICATION_TYPE><NORAD_CAT_ID>25986</NORAD_CAT_ID><ELEMENT_SET_NO>999</ELEMENT_SET_NO><REV_AT_EPOCH>26448</REV_AT_EPOCH><BSTAR>.70393E-3</BSTAR><MEAN_MOTION_DOT>.1873E-4</MEAN_MOTION_DOT><MEAN_MOTION_DDOT>0</MEAN_MOTION_DDOT></tleParameters></data></segment></body></omm>
<omm id="CCSDS_OMM_VERS" version="2.0">
<header><CREATION_DATE/><ORIGINATOR/></header><body><segment><metadata><OBJECT_NAME>ORBCOMM FM38 [-]</OBJECT_NAME><OBJECT_ID>2008-031A</OBJECT_ID><CENTER_NAME>EARTH</CENTER_NAME><REF_FRAME>TEME</REF_FRAME><TIME_SYSTEM>UTC</TIME_SYSTEM><MEAN_ELEMENT_THEORY>SGP4</MEAN_ELEMENT_THEORY></metadata><data><meanElements><EPOCH>2024-02-13T12:17:51.976896</EPOCH><MEAN_MOTION>14.76929556</MEAN_MOTION><ECCENTRICITY>.0004559</ECCENTRICITY><INCLINATION>48.4403</INCLINATION><RA_OF_ASC_NODE>120.6809</RA_OF_ASC_NODE><ARG_OF_PERICENTER>101.9709</ARG_OF_PERICENTER><MEAN_ANOMALY>258.1716</MEAN_ANOMALY></meanElements><tleParameters><EPHEMERIS_TYPE>0</EPHEMERIS_TYPE><CLASSIFICATION_TYPE>U</CLASSIFICATION_TYPE><NORAD_CAT_ID>33060</NORAD_CAT_ID><ELEMENT_SET_NO>999</ELEMENT_SET_NO><REV_AT_EPOCH>84226</REV_AT_EPOCH><BSTAR>.581E-3</BSTAR><MEAN_MOTION_DOT>.3927E-4</MEAN_MOTION_DOT><MEAN_MOTION_DDOT>0</MEAN_MOTION_DDOT></tleParameters></data></segment></body></omm>
<omm id="CCSDS_OMM_VERS" version="2.0">
<header><CREATION_DATE/><ORIGINATOR/></header><body><segment><metadata><OBJECT_NAME>ORBCOMM FM41 [-]</OBJECT_NAME><OBJECT_ID>2008-031B</OBJECT_ID><CENTER_NAME>EARTH</CENTER_NAME><REF_FRAME>TEME</REF_FRAME><TIME_SYSTEM>UTC</TIME_SYSTEM><MEAN_ELEMENT_THEORY>SGP4</MEAN_ELEMENT_THEORY></metadata><data><meanElements><EPOCH>2024-02-13T04:59:38.733216</EPOCH><MEAN_MOTION>14.76668195</MEAN_MOTION><ECCENTRICITY>.0003695</ECCENTRICITY><INCLINATION>48.4439</INCLINATION><RA_OF_ASC_NODE>128.5393</RA_OF_ASC_NODE><ARG_OF_PERICENTER>85.2689</ARG_OF_PERICENTER><MEAN_ANOMALY>296.4341</MEAN_ANOMALY></meanElements><tleParameters><EPHEMERIS_TYPE>0</EPHEMERIS_TYPE><CLASSIFICATION_TYPE>U</CLASSIFICATION_TYPE><NORAD_CAT_ID>33061</NORAD_CAT_ID><ELEMENT_SET_NO>999</ELEMENT_SET_NO><REV_AT_EPOCH>84172</REV_AT_EPOCH><BSTAR>.59535E-3</BSTAR><MEAN_MOTION_DOT>.4004E-4</MEAN_MOTION_DOT><MEAN_MOTION_DDOT>0</MEAN_MOTION_DDOT></tleParameters></data></segment></body></omm>
<omm id="CCSDS_OMM_VERS" version="2.0">
<header><CREATION_DATE/><ORIGINATOR/></header><body><segment><metadata><OBJECT_NAME>ORBCOMM FM29 [-]</OBJECT_NAME><OBJECT_ID>2008-031C</OBJECT_ID><CENTER_NAME>EARTH</CENTER_NAME><REF_FRAME>TEME</REF_FRAME><TIME_SYSTEM>UTC</TIME_SYSTEM><MEAN_ELEMENT_THEORY>SGP4</MEAN_ELEMENT_THEORY></metadata><data><meanElements><EPOCH>2024-02-13T12:41:16.225728</EPOCH><MEAN_MOTION>14.76583188</MEAN_MOTION><ECCENTRICITY>.0005554</ECCENTRICITY><INCLINATION>48.4392</INCLINATION><RA_OF_ASC_NODE>135.0464</RA_OF_ASC_NODE><ARG_OF_PERICENTER>85.5807</ARG_OF_PERICENTER><MEAN_ANOMALY>287.9732</MEAN_ANOMALY></meanElements><tleParameters><EPHEMERIS_TYPE>0</EPHEMERIS_TYPE><CLASSIFICATION_TYPE>U</CLASSIFICATION_TYPE><NORAD_CAT_ID>33062</NORAD_CAT_ID><ELEMENT_SET_NO>999</ELEMENT_SET_NO><REV_AT_EPOCH>84168</REV_AT_EPOCH><BSTAR>.65774E-3</BSTAR><MEAN_MOTION_DOT>.4436E-4</MEAN_MOTION_DOT><MEAN_MOTION_DDOT>0</MEAN_MOTION_DDOT></tleParameters></data></segment></body></omm>
<omm id="CCSDS_OMM_VERS" version="2.0">
<header><CREATION_DATE/><ORIGINATOR/></header><body><segment><metadata><OBJECT_NAME>ORBCOMM FM39 [-]</OBJECT_NAME><OBJECT_ID>2008-031D</OBJECT_ID><CENTER_NAME>EARTH</CENTER_NAME><REF_FRAME>TEME</REF_FRAME><TIME_SYSTEM>UTC</TIME_SYSTEM><MEAN_ELEMENT_THEORY>SGP4</MEAN_ELEMENT_THEORY></metadata><data><meanElements><EPOCH>2024-02-13T13:41:42.296352</EPOCH><MEAN_MOTION>14.75660615</MEAN_MOTION><ECCENTRICITY>.0006599</ECCENTRICITY><INCLINATION>48.4401</INCLINATION><RA_OF_ASC_NODE>154.7348</RA_OF_ASC_NODE><ARG_OF_PERICENTER>59.7444</ARG_OF_PERICENTER><MEAN_ANOMALY>300.4121</MEAN_ANOMALY></meanElements><tleParameters><EPHEMERIS_TYPE>0</EPHEMERIS_TYPE><CLASSIFICATION_TYPE>U</CLASSIFICATION_TYPE><NORAD_CAT_ID>33063</NORAD_CAT_ID><ELEMENT_SET_NO>999</ELEMENT_SET_NO><REV_AT_EPOCH>84139</REV_AT_EPOCH><BSTAR>.62426E-3</BSTAR><MEAN_MOTION_DOT>.4107E-4</MEAN_MOTION_DOT><MEAN_MOTION_DDOT>0</MEAN_MOTION_DDOT></tleParameters></data></segment></body></omm>

</ndm>
